[{"OBJECT_NAME":"OBJECT D","OBJECT_ID":"2025-055D","EPOCH":"2026-03-09T22:34:08.531328","MEAN_MOTION":15.14873304,"ECCENTRICITY":0.00167206,"INCLINATION":97.6361,"RA_OF_ASC_NODE":208.0641,"ARG_OF_PERICENTER":122.8096,"MEAN_ANOMALY":237.4749,"EPHEMERIS_TYPE":0,"CLASSIFICATION_TYPE":"U","NORAD_CAT_ID":63294,"ELEMENT_SET_NO":999,"REV_AT_EPOCH":5397,"BSTAR":0.00070425888,"MEAN_MOTION_DOT":0.00013093,"MEAN_MOTION_DDOT":0},{"OBJECT_NAME":"OBJECT C","OBJECT_ID":"2025-226C","EPOCH":"2026-03-09T22:35:45.758112","MEAN_MOTION":15.1432456,"ECCENTRICITY":0.00153316,"INCLINATION":97.6396,"RA_OF_ASC_NODE":148.5375,"ARG_OF_PERICENTER":120.7219,"MEAN_ANOMALY":239.5525,"EPHEMERIS_TYPE":0,"CLASSIFICATION_TYPE":"U","NORAD_CAT_ID":65940,"ELEMENT_SET_NO":999,"REV_AT_EPOCH":2265,"BSTAR":0.00059133816,"MEAN_MOTION_DOT":0.00010804,"MEAN_MOTION_DDOT":0}]
